NORAD_CAT_ID,OBJECT_NAME,OBJECT_TYPE,EPOCH,MEAN_MOTION,ECCENTRICITY,INCLINATION,RA_OF_ASC_NODE,ARG_OF_PERICENTER,MEAN_ANOMALY,BSTAR,MEAN_MOTION_DOT,MEAN_MOTION_DDOT,TLE_LINE0,TLE_LINE1,TLE_LINE2,SEMIMAJOR_AXIS,PERIOD,APOGEE,PERIGEE,DECAYED
56494.0,STARLINK-5530,PAYLOAD,2023-08-08 11:45:34,15.69935255,0.0003262,69.998,352.9042,268.9827,91.0995,1.4283e-05,1.506e-05,0.0,0 STARLINK-5530,1 56494U 23064AY  23220.48998327  .00001506  00000-0  14283-4 0  9996,2 56494  69.9980 352.9042 0003262 268.9827  91.0995 15.69935255 14469,6737.219,91.724,361.282,356.887,0.0
56494.0,STARLINK-5530,PAYLOAD,2023-08-08 19:24:20,15.69927145,0.0003224,69.9997,352.0096,276.7106,83.3722,1.0897e-05,1.098e-05,0.0,0 STARLINK-5530,1 56494U 23064AY  23220.80857220  .00001098  00000-0  10897-4 0  9991,2 56494  69.9997 352.0096 0003224 276.7106  83.3722 15.69927145 14519,6737.242,91.724,361.28,356.935,0.0
56494.0,STARLINK-5530,PAYLOAD,2023-08-09 21:24:07,15.69929939,0.0003109,69.9991,348.9617,279.5613,80.5231,1.5766e-05,1.684e-05,0.0,0 STARLINK-5530,1 56494U 23064AY  23221.89175106  .00001684  00000-0  15766-4 0  9998,2 56494  69.9991 348.9617 0003109 279.5613  80.5231 15.69929939 14687,6737.234,91.724,361.194,357.005,0.0
56494.0,STARLINK-5530,PAYLOAD,2023-08-11 10:06:11,15.69919768,0.0002823,69.9989,344.6632,261.7952,98.2924,-2.619e-06,-5.27e-06,0.0,0 STARLINK-5530,1 56494U 23064AY  23223.42096188 -.00000527  00000-0 -26190-5 0  9992,2 56494  69.9989 344.6632 0002823 261.7952  98.2924 15.69919768 14926,6737.264,91.724,361.03,357.227,0.0
56494.0,STARLINK-5530,PAYLOAD,2023-08-11 17:44:56,15.69928398,0.0003653,69.9979,343.7675,274.7417,85.3361,5.0739e-06,3.97e-06,0.0,0 STARLINK-5530,1 56494U 23064AY  23223.73953840  .00000397  00000-0  50739-5 0  9992,2 56494  69.9979 343.7675 0003653 274.7417  85.3361 15.69928398 14970,6737.239,91.724,361.565,356.643,0.0
56494.0,STARLINK-5530,PAYLOAD,2023-08-12 10:34:12,15.6992338,0.0003373,69.9988,341.7979,265.0991,94.9819,-1.7858e-06,-4.27e-06,0.0,0 STARLINK-5530,1 56494U 23064AY  23224.44042734 -.00000427  00000-0 -17858-5 0  9993,2 56494  69.9988 341.7979 0003373 265.0991  94.9819 15.69923380 15087,6737.253,91.724,361.391,356.846,0.0
56494.0,STARLINK-5530,PAYLOAD,2023-08-12 18:12:58,15.69911577,0.0003477,69.9983,340.9026,268.7299,91.3498,2.4013e-05,2.674e-05,0.0,0 STARLINK-5530,1 56494U 23064AY  23224.75901361  .00002674  00000-0  24013-4 0  9991,2 56494  69.9983 340.9026 0003477 268.7299  91.3498 15.69911577 15137,6737.287,91.725,361.495,356.809,0.0
56494.0,STARLINK-5530,PAYLOAD,2023-08-13 17:09:15,15.6992307,0.0003666,69.9991,338.215,266.8192,93.2584,1.5143e-05,1.608e-05,0.0,0 STARLINK-5530,1 56494U 23064AY  23225.71475800  .00001608  00000-0  15143-4 0  9992,2 56494  69.9991 338.2150 0003666 266.8192  93.2584 15.69923070 15289,6737.254,91.724,361.589,356.649,0.0
56494.0,STARLINK-5530,PAYLOAD,2023-08-14 00:48:01,15.69910453,0.0003833,69.9986,337.3192,268.4427,91.633,-9.1017e-06,-1.307e-05,0.0,0 STARLINK-5530,1 56494U 23064AY  23226.03335487 -.00001307  00000-0 -91017-5 0  9997,2 56494  69.9986 337.3192 0003833 268.4427  91.6330 15.69910453 15332,6737.29,91.725,361.738,356.573,0.0
56494.0,STARLINK-5530,PAYLOAD,2023-08-14 08:26:46,15.69923892,0.0003706,69.9983,336.4233,268.9885,91.0886,1.0663e-05,1.069e-05,0.0,0 STARLINK-5530,1 56494U 23064AY  23226.35192721  .00001069  00000-0  10663-4 0  9994,2 56494  69.9983 336.4233 0003706 268.9885  91.0886 15.69923892 15383,6737.252,91.724,361.614,356.62,0.0
56494.0,STARLINK-5530,PAYLOAD,2023-08-15 10:26:34,15.6992009,0.0002628,69.9997,333.3787,296.7277,63.3649,9.5121e-06,9.31e-06,0.0,0 STARLINK-5530,1 56494U 23064AY  23227.43511629  .00000931  00000-0  95121-5 0  9996,2 56494  69.9997 333.3787 0002628 296.7277  63.3649 15.69920090 15559,6737.263,91.724,360.898,357.357,0.0
56494.0,STARLINK-5530,PAYLOAD,2023-08-16 18:33:21,15.6992285,0.000323,69.9972,329.6155,265.0433,95.0394,6.8691e-06,6.13e-06,0.0,0 STARLINK-5530,1 56494U 23064AY  23228.77316389  .00000613  00000-0  68691-5 0  9999,2 56494  69.9972 329.6155 0003230 265.0433  95.0394 15.69922850 15760,6737.255,91.724,361.296,356.944,0.0
56494.0,STARLINK-5530,PAYLOAD,2023-08-17 23:36:39,15.69918972,0.0003391,69.9969,326.2116,269.6618,90.4189,7.7477e-07,-1.2e-06,0.0,0 STARLINK-5530,1 56494U 23064AY  23229.98378488 -.00000120  00000-0  77477-6 0  9998,2 56494  69.9969 326.2116 0003391 269.6618  90.4189 15.69918972 15951,6737.266,91.724,361.415,356.846,0.0
56494.0,STARLINK-5530,PAYLOAD,2023-08-19 00:04:40,15.69924852,0.0002859,69.9979,323.3463,270.8955,89.1913,8.1093e-06,7.63e-06,0.0,0 STARLINK-5530,1 56494U 23064AY  23231.00324908  .00000763  00000-0  81093-5 0  9992,2 56494  69.9979 323.3463 0002859 270.8955  89.1913 15.69924852 16114,6737.249,91.724,361.04,357.188,0.0
56494.0,STARLINK-5530,PAYLOAD,2023-08-19 09:15:12,15.69916509,0.0003335,69.9979,322.2717,264.8005,95.281,-1.1851e-05,-1.637e-05,0.0,0 STARLINK-5530,1 56494U 23064AY  23231.38555707 -.00001637  00000-0 -11851-4 0  9993,2 56494  69.9979 322.2717 0003335 264.8005  95.2810 15.69916509 16173,6737.273,91.725,361.385,356.891,0.0
56494.0,STARLINK-5530,PAYLOAD,2023-08-19 18:25:42,15.69922924,0.0003222,69.9968,321.1949,269.4345,90.6481,6.3937e-06,5.56e-06,0.0,0 STARLINK-5530,1 56494U 23064AY  23231.76785065  .00000556  00000-0  63937-5 0  9997,2 56494  69.9968 321.1949 0003222 269.4345  90.6481 15.69922924 16237,6737.255,91.724,361.29,356.949,0.0
56494.0,STARLINK-5530,PAYLOAD,2023-08-20 23:29:00,15.69918879,0.000268,69.9989,317.7931,273.8818,86.2071,-3.4587e-06,-6.28e-06,0.0,0 STARLINK-5530,1 56494U 23064AY  23232.97847556 -.00000628  00000-0 -34587-5 0  9996,2 56494  69.9989 317.7931 0002680 273.8818  86.2071 15.69918879 16424,6737.266,91.724,360.937,357.325,0.0
56494.0,STARLINK-5530,PAYLOAD,2023-08-21 14:46:31,15.69920405,0.0002639,69.9987,316.0015,270.0905,89.9988,1.8648e-05,2.03e-05,0.0,0 STARLINK-5530,1 56494U 23064AY  23233.61563737  .00002030  00000-0  18648-4 0  9990,2 56494  69.9987 316.0015 0002639 270.0905  89.9988 15.69920405 16523,6737.262,91.724,360.905,357.349,0.0
56494.0,STARLINK-5530,PAYLOAD,2023-08-22 09:07:33,15.69907737,0.0003171,69.9984,313.8504,272.2513,87.832,-1.4052e-05,-1.901e-05,0.0,0 STARLINK-5530,1 56494U 23064AY  23234.38024726 -.00001901  00000-0 -14052-4 0  9998,2 56494  69.9984 313.8504 0003171 272.2513  87.8320 15.69907737 16642,6737.298,91.725,361.299,357.027,0.0
56494.0,STARLINK-5530,PAYLOAD,2023-08-22 16:46:18,15.69915534,0.0003159,69.9983,312.9562,265.404,94.6795,-8.5885e-06,-1.245e-05,0.0,0 STARLINK-5530,1 56494U 23064AY  23234.69882602 -.00001245  00000-0 -85885-5 0  9991,2 56494  69.9983 312.9562 0003159 265.4040  94.6795 15.69915534 16691,6737.276,91.725,361.269,357.012,0.0
56494.0,STARLINK-5530,PAYLOAD,2023-08-23 12:39:04,15.69922739,0.0003256,69.9985,310.6289,262.6359,97.4466,-2.89e-06,-5.6e-06,0.0,0 STARLINK-5530,1 56494U 23064AY  23235.52714037 -.00000560  00000-0 -28900-5 0  9994,2 56494  69.9985 310.6289 0003256 262.6359  97.4466 15.69922739 16820,6737.255,91.724,361.314,356.926,0.0
56494.0,STARLINK-5530,PAYLOAD,2023-08-24 16:10:37,15.69917763,0.0003196,69.9984,307.4021,267.8679,92.2151,2.0799e-05,2.288e-05,0.0,0 STARLINK-5530,1 56494U 23064AY  23236.67403957  .00002288  00000-0  20799-4 0  9991,2 56494  69.9984 307.4021 0003196 267.8679  92.2151 15.69917763 16658,6737.269,91.725,361.288,356.981,0.0
56494.0,STARLINK-5530,PAYLOAD,2023-08-25 13:35:08,15.69924235,0.0003064,69.9987,304.8954,258.1279,101.9573,6.506e-06,5.7e-06,0.0,0 STARLINK-5530,1 56494U 23064AY  23237.56607440  .00000570  00000-0  65060-5 0  9996,2 56494  69.9987 304.8954 0003064 258.1279 101.9573 15.69924235 16793,6737.251,91.724,361.18,357.051,0.0
56494.0,STARLINK-5530,PAYLOAD,2023-08-25 16:38:38,15.69926644,0.0003181,69.9982,304.536,267.011,93.0721,7.6044e-06,7.02e-06,0.0,0 STARLINK-5530,1 56494U 23064AY  23237.69350639  .00000702  00000-0  76044-5 0  9996,2 56494  69.9982 304.5360 0003181 267.0110  93.0721 15.69926644 17163,6737.244,91.724,361.252,356.966,0.0
56494.0,STARLINK-5530,PAYLOAD,2023-08-26 07:56:10,15.69919855,0.0003161,69.9982,302.7446,268.4836,91.5998,1.5047e-06,-3.2e-07,0.0,0 STARLINK-5530,1 56494U 23064AY  23238.33067919 -.00000032  00000-0  15047-5 0  9997,2 56494  69.9982 302.7446 0003161 268.4836  91.5998 15.69919855 17262,6737.263,91.724,361.258,356.999,0.0
56494.0,STARLINK-5530,PAYLOAD,2023-08-26 14:03:11,15.6991999,0.0003161,69.9982,302.028,268.611,91.4723,1.5833e-06,-2.2e-07,0.0,0 STARLINK-5530,1 56494U 23064AY  23238.58554656 -.00000022  00000-0  15833-5 0  9995,2 56494  69.9982 302.0280 0003161 268.6110  91.4723 15.69919990 16958,6737.263,91.724,361.258,356.998,0.0
56494.0,STARLINK-5530,PAYLOAD,2023-08-26 17:06:41,15.69923603,0.0002962,69.9986,301.6685,271.3939,88.6918,7.6387e-06,7.06e-06,0.0,0 STARLINK-5530,1 56494U 23064AY  23238.71297672  .00000706  00000-0  76387-5 0  9991,2 56494  69.9986 301.6685 0002962 271.3939  88.6918 15.69923603 16976,6737.253,91.724,361.113,357.122,0.0
56494.0,STARLINK-5530,PAYLOAD,2023-08-27 05:20:42,15.69907857,0.0003042,69.9987,300.2353,271.3502,88.7345,3.6047e-05,4.121e-05,0.0,0 STARLINK-5530,1 56494U 23064AY  23239.22271159  .00004121  00000-0  36047-4 0  9993,2 56494  69.9987 300.2353 0003042 271.3502  88.7345 15.69907857 17058,6737.298,91.725,361.212,357.113,0.0
56494.0,STARLINK-5530,PAYLOAD,2023-08-27 16:02:56,15.69940322,0.0003275,69.9978,298.9828,269.3337,90.7483,2.3869e-05,2.66e-05,0.0,0 STARLINK-5530,1 56494U 23064AY  23239.66871342  .00002660  00000-0  23869-4 0  9995,2 56494  69.9978 298.9828 0003275 269.3337  90.7483 15.69940322 17475,6737.205,91.723,361.276,356.863,0.0
56494.0,STARLINK-5530,PAYLOAD,2023-08-28 10:23:53,15.69948057,0.0003274,69.9969,296.8302,268.5691,91.5129,1.1463e-05,1.167e-05,0.0,0 STARLINK-5530,1 56494U 23064AY  23240.43326264  .00001167  00000-0  11463-4 0  9998,2 56494  69.9969 296.8302 0003274 268.5691  91.5129 15.69948057 17594,6737.183,91.723,361.253,356.842,0.0
